SL-16 R/B               
1 22803U 93059B   26092.89798166  .00000003  00000+0  25014-4 0  9992
2 22803  70.9908 320.0789 0017146 180.8404 179.2694 14.17234591682969
ARIANE 40 R/B           
1 22830U 93061H   26092.65034679  .00000257  00000+0  10985-3 0  9992
2 22830  98.4873 161.0600 0010263 207.3470 152.7175 14.32873980697538
COSMOS 2278             
1 23087U 94023A   26092.78520207 -.00000053  00000+0 -27526-5 0  9994
2 23087  71.0507 124.6876 0009312 337.3869  22.6842 14.14374693648217
SL-16 R/B               
1 23088U 94023B   26092.75013522  .00000220  00000+0  13816-3 0  9998
2 23088  71.0029  20.3567 0005552 264.3919  95.6571 14.15018735649496
SL-16 R/B               
1 23343U 94074B   26092.82503334  .00000578  00000+0  84048-4 0  9993
2 23343  97.7072 122.6616 0007615 134.1055  39.2053 14.79435927690818
SL-16 R/B               
1 23405U 94077B   26092.86367323 -.00000182  00000+0 -68634-4 0  9991
2 23405  70.9824 301.6330 0001662 191.9704 168.1379 14.15568469619659
ARIANE 40+ R/B          
1 23561U 95021B   26092.43546360  .00000423  00000+0  14861-3 0  9995
2 23561  98.4456 163.5915 0007863  75.3741 295.4138 14.39790101622665
SL-16 R/B               
1 23705U 95058B   26092.37717199 -.00000120  00000+0 -37307-4 0  9995
2 23705  71.0194 130.5263 0010239  82.2364 277.9921 14.15497952571200
SL-16 R/B               
1 24298U 96051B   26092.39530476  .00000154  00000+0  10990-3 0  9993
2 24298  70.7582 125.0648 0013209 109.2675 250.9874 14.12422837524995
ORBVIEW 2 (SEASTAR)     
1 24883U 97037A   26092.74376194  .00000342  00000+0  13523-3 0  9996
2 24883  98.8608 257.6982 0002149  17.6430 342.4829 14.35512177511928
SL-16 R/B               
1 25400U 98043G   26092.58708523  .00000085  00000+0  54471-4 0  9999
2 25400  98.8295  46.1259 0009017 309.6195  50.4188 14.26055448442398
SL-16 R/B               
1 25407U 98045B   26092.80026336 -.00000005  00000+0  21634-4 0  9996
2 25407  71.0091 130.8724 0008184 332.4015  27.6673 14.16193287430518
ISS (ZARYA)             
1 25544U 98067A   26092.84326289  .00011825  00000+0  22447-3 0  9999
2 25544  51.6328 312.9475 0006236 264.7845  95.2432 15.48729122560075
CZ-4B R/B               
1 25732U 99025C   26092.88533352  .00000091  00000+0  65030-4 0  9997
2 25732  98.6575 136.5883 0035968 275.3948 257.0985 14.18270340391597
OKEAN-O                 
1 25860U 99039A   26092.44453991  .00001005  00000+0  13852-3 0  9996
2 25860  97.9393 152.0887 0000910 100.8750 259.2564 14.80375061437906
SL-16 R/B               
1 25861U 99039B   26092.60468183  .00000736  00000+0  99958-4 0  9996
2 25861  97.9916 151.6596 0014935 174.6351 185.5025 14.81764931440409
DELTA 2 R/B             
1 25876U 99041E   26092.58137671  .00000813  00000+0  17038-3 0  9991
2 25876  51.7608 205.8385 0502636  58.8851 306.0393 14.11892754366400
