[{"OBJECT_NAME":"SL-16 R/B","OBJECT_ID":"1993-059B","EPOCH":"2026-04-02T21:33:05.615424","MEAN_MOTION":14.17234591,"ECCENTRICITY":0.0017146,"INCLINATION":70.9908,"RA_OF_ASC_NODE":320.0789,"ARG_OF_PERICENTER":180.8404,"MEAN_ANOMALY":179.2694,"EPHEMERIS_TYPE":0,"CLASSIFICATION_TYPE":"U","NORAD_CAT_ID":22803,"ELEMENT_SET_NO":999,"REV_AT_EPOCH":68296,"BSTAR":2.5014e-5,"MEAN_MOTION_DOT":3.0e-8,"MEAN_MOTION_DDOT":0},{"OBJECT_NAME":"ARIANE 40 R/B","OBJECT_ID":"1993-061H","EPOCH":"2026-04-02T15:36:29.962656","MEAN_MOTION":14.3287398,"ECCENTRICITY":0.0010263,"INCLINATION":98.4873,"RA_OF_ASC_NODE":161.06,"ARG_OF_PERICENTER":207.347,"MEAN_ANOMALY":152.7175,"EPHEMERIS_TYPE":0,"CLASSIFICATION_TYPE":"U","NORAD_CAT_ID":22830,"ELEMENT_SET_NO":999,"REV_AT_EPOCH":69753,"BSTAR":0.00010985,"MEAN_MOTION_DOT":2.57e-6,"MEAN_MOTION_DDOT":0},{"OBJECT_NAME":"COSMOS 2278","OBJECT_ID":"1994-023A","EPOCH":"2026-04-02T18:50:41.458848","MEAN_MOTION":14.14374693,"ECCENTRICITY":0.0009312,"INCLINATION":71.0507,"RA_OF_ASC_NODE":124.6876,"ARG_OF_PERICENTER":337.3869,"MEAN_ANOMALY":22.6842,"EPHEMERIS_TYPE":0,"CLASSIFICATION_TYPE":"U","NORAD_CAT_ID":23087,"ELEMENT_SET_NO":999,"REV_AT_EPOCH":64821,"BSTAR":-2.7526e-6,"MEAN_MOTION_DOT":-5.3e-7,"MEAN_MOTION_DDOT":0},{"OBJECT_NAME":"SL-16 R/B","OBJECT_ID":"1994-023B","EPOCH":"2026-04-02T18:00:11.683008","MEAN_MOTION":14.15018735,"ECCENTRICITY":0.0005552,"INCLINATION":71.0029,"RA_OF_ASC_NODE":20.3567,"ARG_OF_PERICENTER":264.3919,"MEAN_ANOMALY":95.6571,"EPHEMERIS_TYPE":0,"CLASSIFICATION_TYPE":"U","NORAD_CAT_ID":23088,"ELEMENT_SET_NO":999,"REV_AT_EPOCH":64949,"BSTAR":0.00013816,"MEAN_MOTION_DOT":2.2e-6,"MEAN_MOTION_DDOT":0},{"OBJECT_NAME":"SL-16 R/B","OBJECT_ID":"1994-074B","EPOCH":"2026-04-02T19:48:02.880576","MEAN_MOTION":14.79435927,"ECCENTRICITY":0.0007615,"INCLINATION":97.7072,"RA_OF_ASC_NODE":122.6616,"ARG_OF_PERICENTER":134.1055,"MEAN_ANOMALY":39.2053,"EPHEMERIS_TYPE":0,"CLASSIFICATION_TYPE":"U","NORAD_CAT_ID":23343,"ELEMENT_SET_NO":999,"REV_AT_EPOCH":69081,"BSTAR":8.4048e-5,"MEAN_MOTION_DOT":5.78e-6,"MEAN_MOTION_DDOT":0},{"OBJECT_NAME":"SL-16 R/B","OBJECT_ID":"1994-077B","EPOCH":"2026-04-02T20:43:41.367072","MEAN_MOTION":14.15568469,"ECCENTRICITY":0.0001662,"INCLINATION":70.9824,"RA_OF_ASC_NODE":301.633,"ARG_OF_PERICENTER":191.9704,"MEAN_ANOMALY":168.1379,"EPHEMERIS_TYPE":0,"CLASSIFICATION_TYPE":"U","NORAD_CAT_ID":23405,"ELEMENT_SET_NO":999,"REV_AT_EPOCH":61965,"BSTAR":-6.8634e-5,"MEAN_MOTION_DOT":-1.82e-6,"MEAN_MOTION_DDOT":0},{"OBJECT_NAME":"ARIANE 40+ R/B","OBJECT_ID":"1995-021B","EPOCH":"2026-04-02T10:27:04.055040","MEAN_MOTION":14.39790101,"ECCENTRICITY":0.0007863,"INCLINATION":98.4456,"RA_OF_ASC_NODE":163.5915,"ARG_OF_PERICENTER":75.3741,"MEAN_ANOMALY":295.4138,"EPHEMERIS_TYPE":0,"CLASSIFICATION_TYPE":"U","NORAD_CAT_ID":23561,"ELEMENT_SET_NO":999,"REV_AT_EPOCH":62266,"BSTAR":0.00014861006,"MEAN_MOTION_DOT":4.23e-6,"MEAN_MOTION_DDOT":0},{"OBJECT_NAME":"SL-16 R/B","OBJECT_ID":"1995-058B","EPOCH":"2026-04-02T09:03:07.659936","MEAN_MOTION":14.15497952,"ECCENTRICITY":0.00102399,"INCLINATION":71.0194,"RA_OF_ASC_NODE":130.5263,"ARG_OF_PERICENTER":82.2364,"MEAN_ANOMALY":277.9921,"EPHEMERIS_TYPE":0,"CLASSIFICATION_TYPE":"U","NORAD_CAT_ID":23705,"ELEMENT_SET_NO":999,"REV_AT_EPOCH":57120,"BSTAR":-3.7306639e-5,"MEAN_MOTION_DOT":-1.2e-6,"MEAN_MOTION_DDOT":0},{"OBJECT_NAME":"SL-16 R/B","OBJECT_ID":"1996-051B","EPOCH":"2026-04-02T09:29:14.331264","MEAN_MOTION":14.12422837,"ECCENTRICITY":0.00132091,"INCLINATION":70.7582,"RA_OF_ASC_NODE":125.0648,"ARG_OF_PERICENTER":109.2675,"MEAN_ANOMALY":250.9874,"EPHEMERIS_TYPE":0,"CLASSIFICATION_TYPE":"U","NORAD_CAT_ID":24298,"ELEMENT_SET_NO":999,"REV_AT_EPOCH":52499,"BSTAR":0.00010989815,"MEAN_MOTION_DOT":1.54e-6,"MEAN_MOTION_DDOT":0},{"OBJECT_NAME":"ORBVIEW 2 (SEASTAR)","OBJECT_ID":"1997-037A","EPOCH":"2026-04-02T17:51:01.031616","MEAN_MOTION":14.35512177,"ECCENTRICITY":0.0002149,"INCLINATION":98.8608,"RA_OF_ASC_NODE":257.6982,"ARG_OF_PERICENTER":17.643,"MEAN_ANOMALY":342.4829,"EPHEMERIS_TYPE":0,"CLASSIFICATION_TYPE":"U","NORAD_CAT_ID":24883,"ELEMENT_SET_NO":999,"REV_AT_EPOCH":51192,"BSTAR":0.00013523,"MEAN_MOTION_DOT":3.42e-6,"MEAN_MOTION_DDOT":0},{"OBJECT_NAME":"SL-16 R/B","OBJECT_ID":"1998-043G","EPOCH":"2026-04-02T14:05:24.163872","MEAN_MOTION":14.26055448,"ECCENTRICITY":0.00090171,"INCLINATION":98.8295,"RA_OF_ASC_NODE":46.1259,"ARG_OF_PERICENTER":309.6195,"MEAN_ANOMALY":50.4188,"EPHEMERIS_TYPE":0,"CLASSIFICATION_TYPE":"U","NORAD_CAT_ID":25400,"ELEMENT_SET_NO":999,"REV_AT_EPOCH":44239,"BSTAR":5.4470928e-5,"MEAN_MOTION_DOT":8.5e-7,"MEAN_MOTION_DDOT":0},{"OBJECT_NAME":"SL-16 R/B","OBJECT_ID":"1998-045B","EPOCH":"2026-04-02T19:12:22.754304","MEAN_MOTION":14.16193287,"ECCENTRICITY":0.0008184,"INCLINATION":71.0091,"RA_OF_ASC_NODE":130.8724,"ARG_OF_PERICENTER":332.4015,"MEAN_ANOMALY":27.6673,"EPHEMERIS_TYPE":0,"CLASSIFICATION_TYPE":"U","NORAD_CAT_ID":25407,"ELEMENT_SET_NO":999,"REV_AT_EPOCH":43051,"BSTAR":2.1634e-5,"MEAN_MOTION_DOT":-5.0e-8,"MEAN_MOTION_DDOT":0},{"OBJECT_NAME":"ISS (ZARYA)","OBJECT_ID":"1998-067A","EPOCH":"2026-04-02T20:14:17.913696","MEAN_MOTION":15.48729122,"ECCENTRICITY":0.0006236,"INCLINATION":51.6328,"RA_OF_ASC_NODE":312.9475,"ARG_OF_PERICENTER":264.7845,"MEAN_ANOMALY":95.2432,"EPHEMERIS_TYPE":0,"CLASSIFICATION_TYPE":"U","NORAD_CAT_ID":25544,"ELEMENT_SET_NO":999,"REV_AT_EPOCH":56007,"BSTAR":0.00022447,"MEAN_MOTION_DOT":0.00011825,"MEAN_MOTION_DDOT":0},{"OBJECT_NAME":"CZ-4B R/B","OBJECT_ID":"1999-025C","EPOCH":"2026-04-02T21:14:52.816128","MEAN_MOTION":14.1827034,"ECCENTRICITY":0.0035968,"INCLINATION":98.6575,"RA_OF_ASC_NODE":136.5883,"ARG_OF_PERICENTER":275.3948,"MEAN_ANOMALY":257.0985,"EPHEMERIS_TYPE":0,"CLASSIFICATION_TYPE":"U","NORAD_CAT_ID":25732,"ELEMENT_SET_NO":999,"REV_AT_EPOCH":39159,"BSTAR":6.503e-5,"MEAN_MOTION_DOT":9.1e-7,"MEAN_MOTION_DDOT":0},{"OBJECT_NAME":"OKEAN-O","OBJECT_ID":"1999-039A","EPOCH":"2026-04-02T10:40:08.248224","MEAN_MOTION":14.80375061,"ECCENTRICITY":9.106e-5,"INCLINATION":97.9393,"RA_OF_ASC_NODE":152.0887,"ARG_OF_PERICENTER":100.875,"MEAN_ANOMALY":259.2564,"EPHEMERIS_TYPE":0,"CLASSIFICATION_TYPE":"U","NORAD_CAT_ID":25860,"ELEMENT_SET_NO":999,"REV_AT_EPOCH":43790,"BSTAR":0.00013852214,"MEAN_MOTION_DOT":1.005e-5,"MEAN_MOTION_DDOT":0},{"OBJECT_NAME":"SL-16 R/B","OBJECT_ID":"1999-039B","EPOCH":"2026-04-02T14:30:44.510112","MEAN_MOTION":14.81764931,"ECCENTRICITY":0.00149354,"INCLINATION":97.9916,"RA_OF_ASC_NODE":151.6596,"ARG_OF_PERICENTER":174.6351,"MEAN_ANOMALY":185.5025,"EPHEMERIS_TYPE":0,"CLASSIFICATION_TYPE":"U","NORAD_CAT_ID":25861,"ELEMENT_SET_NO":999,"REV_AT_EPOCH":44040,"BSTAR":9.9958123e-5,"MEAN_MOTION_DOT":7.36e-6,"MEAN_MOTION_DDOT":0},{"OBJECT_NAME":"DELTA 2 R/B","OBJECT_ID":"1999-041E","EPOCH":"2026-04-02T13:57:10.947744","MEAN_MOTION":14.11892754,"ECCENTRICITY":0.05026361,"INCLINATION":51.7608,"RA_OF_ASC_NODE":205.8385,"ARG_OF_PERICENTER":58.8851,"MEAN_ANOMALY":306.0393,"EPHEMERIS_TYPE":0,"CLASSIFICATION_TYPE":"U","NORAD_CAT_ID":25876,"ELEMENT_SET_NO":999,"REV_AT_EPOCH":36640,"BSTAR":0.00017038263,"MEAN_MOTION_DOT":8.13e-6,"MEAN_MOTION_DDOT":0}]
